[{"OBJECT_NAME":"OBJECT D","OBJECT_ID":"2024-174D","EPOCH":"2026-03-10T00:15:10.483200","MEAN_MOTION":15.28039787,"ECCENTRICITY":0.00110644,"INCLINATION":97.4441,"RA_OF_ASC_NODE":80.4677,"ARG_OF_PERICENTER":212.9968,"MEAN_ANOMALY":147.0582,"EPHEMERIS_TYPE":0,"CLASSIFICATION_TYPE":"U","NORAD_CAT_ID":61241,"ELEMENT_SET_NO":999,"REV_AT_EPOCH":8076,"BSTAR":0.00036340099,"MEAN_MOTION_DOT":9.884e-5,"MEAN_MOTION_DDOT":0},{"OBJECT_NAME":"STARLINK-34519","OBJECT_ID":"2025-137Q","EPOCH":"2026-03-09T22:31:30.999936","MEAN_MOTION":15.30165623,"ECCENTRICITY":0.00012048,"INCLINATION":53.1599,"RA_OF_ASC_NODE":334.0375,"ARG_OF_PERICENTER":90.559,"MEAN_ANOMALY":269.5548,"EPHEMERIS_TYPE":0,"CLASSIFICATION_TYPE":"U","NORAD_CAT_ID":64608,"ELEMENT_SET_NO":999,"REV_AT_EPOCH":4077,"BSTAR":0.0005809309,"MEAN_MOTION_DOT":0.00016867,"MEAN_MOTION_DDOT":0}]
